INTELSAT 902 (IS-902)   
1 26900U 01039A   26195.94868450 -.00000296  00000+0  00000+0 0  9993
2 26900   6.1844  71.4415 0004230  40.9771 111.8062  1.00272753 90972
INTELSAT 904 (IS-904)   
1 27380U 02007A   26195.82004185 -.00000239  00000+0  00000+0 0  9993
2 27380   6.9868  68.8486 0005361  25.3691 102.2009  1.00270714 52047
DIRECTV 5 (TEMPO 1)     
1 27426U 02023A   26195.60858678 -.00000069  00000+0  00000+0 0  9993
2 27426   4.9456  74.9668 0003057  45.5469 280.9303  1.00271217 88393
INTELSAT 905 (IS-905)   
1 27438U 02027A   26195.74571968  .00000081  00000+0  00000+0 0  9992
2 27438   6.8205  69.4642 0003461  47.4913 306.8961  1.00271808 51635
GALAXY 3C (G-3C)        
1 27445U 02030A   26195.82544432 -.00000164  00000+0  00000+0 0  9992
2 27445   3.8030  77.6158 0001519  34.2608  23.1303  1.00270689 46770
INTELSAT 906 (IS-906)   
1 27513U 02041A   26195.93566775  .00000000  00000+0  00000+0 0  9994
2 27513   5.8704  72.5782 0003831  24.6066 236.5950  1.00273096 87300
GALAXY 13 (HORIZONS-1)  
1 27954U 03044A   26195.74320633  .00000123  00000+0  00000+0 0  9993
2 27954   1.4881  83.5116 0002144  29.0784 297.5470  1.00271082 46843
INTELSAT 10-02          
1 28358U 04022A   26195.77276730 -.00000019  00000+0  00000+0 0  9995
2 28358   0.0549 250.1704 0000491 346.8275 332.8215  1.00271973 80837
DIRECTV 8               
1 28659U 05019A   26195.74901303  .00000000  00000+0  00000+0 0  9993
2 28659   0.0191  50.5543 0003093  76.0294 316.6283  1.00270594 77346
GALAXY 28 (G-28)        
1 28702U 05022A   26195.76747311 -.00000211  00000+0  00000+0 0  9990
2 28702   3.3672  78.5918 0002486  26.4376  76.7858  1.00272141 52251
GALAXY 16 (G-16)        
1 29236U 06023A   26195.82449098 -.00000135  00000+0  00000+0 0  9998
2 29236   0.0121  96.9841 0002528  29.1770   4.3321  1.00271035 73257
DIRECTV 9S              
1 29494U 06043A   26195.82414432 -.00000124  00000+0  00000+0 0  9998
2 29494   2.4899  80.5684 0005004  34.0926  13.5053  1.00270984 51662
GALAXY 17 (G-17)        
1 31307U 07016B   26195.82735100 -.00000217  00000+0  00000+0 0  9996
2 31307   3.0393  79.5502 0003538  33.8307  32.1235  1.00271879 70081
INTELSAT 11 (IS-11)     
1 32253U 07044B   26195.77380731 -.00000158  00000+0  00000+0 0  9992
2 32253   3.6351  78.3340 0004174 100.6769  36.6369  0.99052090 68725
HORIZONS-2              
1 32388U 07063B   26195.94002681 -.00000264  00000+0  00000+0 0  9994
2 32388   2.6715  80.2840 0003542  20.1672  96.9363  1.00269289 68097
DIRECTV 11              
1 32729U 08013A   26195.53943366 -.00000133  00000+0  00000+0 0  9993
2 32729   0.0105 271.2272 0000085 291.1536 185.0288  1.00272107 45869
GALAXY 18 (G-18)        
1 32951U 08024A   26195.94503759  .00000016  00000+0  00000+0 0  9994
2 32951   0.0165  51.8597 0002848  75.4151  22.7300  1.00271369 46131
GALAXY 19 (G-19)        
1 33376U 08045A   26195.82492432 -.00000148  00000+0  00000+0 0  9998
2 33376   0.0585 248.4919 0002324 238.0587   6.1091  1.00272717 65187
FM-5                    
1 35493U 09034A   26194.90035760 -.00000205  00000+0  00000+0 0  9998
2 35493   0.0457 259.5714 0000757  86.9227 183.2440  1.00271245 46912
INTELSAT 14 (IS-14)     
1 36097U 09064A   26195.76400644 -.00000282  00000+0  00000+0 0  9999
2 36097   0.0211 305.3122 0002182 177.7556  39.5898  1.00268717 60884
INTELSAT 15 (IS-15)     
1 36106U 09067A   26195.83933828 -.00000193  00000+0  00000+0 0  9997
2 36106   0.0149 327.1032 0002215 152.0148 200.8735  1.00268678 41504
DIRECTV 12              
1 36131U 09075A   26195.60997345 -.00000111  00000+0  00000+0 0  9993
2 36131   0.0060 146.6311 0000342  81.1342 181.5619  1.00271908 46821
INTELSAT 16 (IS-16)     
1 36397U 10006A   26195.81492265 -.00000253  00000+0  00000+0 0  9994
2 36397   0.0093  43.7248 0002315  94.0748  12.0317  1.00270086 59937
XM-5                    
1 37185U 10053A   26194.27598828 -.00000026  00000+0  00000+0 0  9991
2 37185   0.0648 265.0318 0001728 322.3275  47.9546  1.00270903 57741
INTELSAT 17 (IS-17)     
1 37238U 10065B   26195.93566775 -.00000010  00000+0  00000+0 0  9996
2 37238   0.0024 134.4012 0002611 355.3297 205.8894  1.00270610 53528
INTELSAT 28 (IS-28)     
1 37392U 11016A   26195.86920437 -.00000235  00000+0  00000+0 0  9994
2 37392   1.8755  82.2459 0003650  36.2250  95.4515  1.00275881 53564
INTELSAT 18 (IS-18)     
1 37834U 11056A   26195.80854424  .00000000  00000+0  00000+0 0  9994
2 37834   0.0191  44.2167 0001726  78.9199 280.6096  1.00269884 54087
INTELSAT 22 (IS-22)     
1 38098U 12011A   26195.92872273 -.00000067  00000+0  00000+0 0  9998
2 38098   0.0112  37.7064 0001858  85.7581 215.7544  1.00272373  7467
INTELSAT 19 (IS-19)     
1 38356U 12030A   26195.80577089 -.00000065  00000+0  00000+0 0  9998
2 38356   0.0061 346.1229 0003196 142.5973 260.0123  1.00271313 50727
INTELSAT 20 (IS-20)     
1 38740U 12043A   26195.93219237 -.00000033  00000+0  00000+0 0  9996
2 38740   0.0122  64.5315 0001209 111.7446 160.5980  1.00270903 51028
INTELSAT 21 (IS-21)     
1 38749U 12045A   26195.19052400 -.00000291  00000+0  00000+0 0  9998
2 38749   0.0563 254.8538 0001278 255.5602 152.2105  1.00263192 50796
INTELSAT 23 (IS-23)     
1 38867U 12057A   26195.76244642 -.00000293  00000+0  00000+0 0  9998
2 38867   0.0148  33.7286 0000361 157.7686 322.6165  1.00273521 50232
FM-6                    
1 39360U 13058A   26194.96565503 -.00000021  00000+0  00000+0 0  9991
2 39360   0.0142  33.4803 0001390 144.8411 344.7900  1.00270909 46349
INTELSAT 30 (IS-30)     
1 40271U 14062A   26194.82722561 -.00000156  00000+0  00000+0 0  9993
2 40271   0.0159  46.9890 0001468 332.6212 114.8422  1.00270855  7068
DIRECTV 14              
1 40333U 14078B   26195.61066678 -.00000133  00000+0  00000+0 0  9992
2 40333   0.0123  45.1480 0000526 293.7964  74.1203  1.00269916 42317
DIRECTV 15              
1 40663U 15026A   26195.68123920 -.00000111  00000+0  00000+0 0  9999
2 40663   0.0176  71.4979 0000099 242.5429 120.8693  1.00271323 40730
SKY MEXICO-1            
1 40664U 15026B   26195.54342035 -.00000242  00000+0  00000+0 0  9990
2 40664   0.0172  32.6899 0002349 103.2479 273.2909  1.00270202 40722
INTELSAT 34 (IS-34)     
1 40874U 15039A   26195.26286936 -.00000292  00000+0  00000+0 0  9998
2 40874   0.0110 352.6276 0000554   9.3806 329.2648  1.00271009 39903
INTELSAT 31 (IS-31)     
1 41581U 16035A   26194.89862426 -.00000156  00000+0  00000+0 0  9992
2 41581   0.0229 276.7908 0001186  13.0074 230.4271  1.00270917 36953
INTELSAT 36 (IS-36)     
1 41747U 16053A   26195.93219237 -.00000033  00000+0  00000+0 0  9992
2 41747   0.0108  29.2174 0002406 310.2810 357.3528  1.00270305 36231
INTELSAT 32E (IS-32E)   
1 41945U 17007B   26195.76435310  .00000000  00000+0  00000+0 0  9998
2 41945   0.0230  50.3038 0000277 277.5143 196.7998  1.00266622 34500
INTELSAT 35E (IS-35E)   
1 42818U 17041A   26195.76608645  .00000000  00000+0  00000+0 0  9999
2 42818   0.0257  55.5687 0001617  55.6099  62.7373  1.00267005 33098
INTELSAT 37E (IS-37E)   
1 42950U 17059A   26195.76937979 -.00000150  00000+0  00000+0 0  9997
2 42950   0.0179  40.8260 0002572  82.7055  68.0542  1.00269764 32344
AZERSPACE 2 (IS-38)     
1 43632U 18074A   26195.85911229  .00000000  00000+0  00000+0 0  9996
2 43632   0.0269  55.5887 0001294  67.9093 163.6155  1.00270157 28724
HORIZONS-3E             
1 43633U 18074B   26194.64002854 -.00000035  00000+0  00000+0 0  9997
2 43633   0.0498 224.9289 0000940  53.6947  52.2963  1.00270118 28608
AT&T T-16               
1 44333U 19034A   26195.82414432 -.00000123  00000+0  00000+0 0  9990
2 44333   0.0157  70.7114 0000616 248.2150 169.5701  1.00268430 25917
INTELSAT 39 (IS-39)     
1 44476U 19049B   26194.92525137  .00000000  00000+0  00000+0 0  9992
2 44476   0.0241  49.4551 0000732 282.1376 355.2527  1.00272225 25392
GALAXY 30 (G-30)        
1 46114U 20056C   26195.74814635  .00000029  00000+0  00000+0 0  9999
2 46114   0.0161  49.1335 0001966  66.2778 321.5171  1.00271630 21563
GALAXY 33 (G-33)        
1 54026U 22128A   26195.74658635  .00000071  00000+0  00000+0 0  9995
2 54026   0.0139  31.8135 0001770  88.6741 307.8857  1.00272050 14013
GALAXY 34 (G-34)        
1 54027U 22128B   26195.67603918  .00000000  00000+0  00000+0 0  9994
2 54027   0.0271  41.8092 0001548  89.7731 275.3412  1.00276000 14181
GALAXY 31 (G-31)        
1 54243U 22153A   26195.67768584  .00000005  00000+0  00000+0 0  9998
2 54243   0.0158  70.0542 0000961  49.7154 295.7132  1.00271000  7409
GALAXY 32 (G-32)        
1 54244U 22153B   26195.82622432 -.00000182  00000+0  00000+0 0  9994
2 54244   0.0085  43.9656 0001402   4.1212  91.0221  1.00269793 13426
GALAXY 35 (G-35)        
1 54741U 22170A   26195.82579098 -.00000170  00000+0  00000+0 0  9991
2 54741   0.0203  75.4606 0001917  41.4513  19.9305  1.00269991 13178
GALAXY 36 (G-36)        
1 54742U 22170B   26195.82648433 -.00000194  00000+0  00000+0 0  9998
2 54742   0.0065 114.0289 0002388 346.8077  40.3734  1.00270252 13055
GALAXY 37 (G-37)        
1 57493U 23112A   26194.96357502  .00000042  00000+0  00000+0 0  9990
2 57493   0.0218  73.5270 0001739  44.1230  34.0616  1.00271325 10810
